0 COSMOS 2251 DEB
1 35975U 93036AVR 13282.36532185  .00001376  00000-0  76378-3 0  2274
2 35975 074.0183 283.3642 0138622 337.9378 021.5789 14.07348285227201
0 COSMOS 2251 DEB
1 35975U 93036AVR 13286.34594081  .00001437  00000-0  79804-3 0  2285
2 35975 074.0234 276.3859 0137792 330.1253 029.2372 14.07360952227763
0 COSMOS 2251 DEB
1 35975U 93036AVR 13289.26029411  .00001743  00000-0  95989-3 0  2292
2 35975 074.0209 271.2489 0141822 324.0266 035.2121 14.07375142228175
0 COSMOS 2251 DEB
1 35975U 93036AVR 13290.61082476  .00001836  00000-0  10213-2 0  2304
2 35975 074.0219 268.8883 0133055 321.8382 037.3719 14.07380761228369
0 COSMOS 2251 DEB
1 35975U 93036AVR 13293.59621814  .00002504  00000-0  13718-2 0  2316
2 35975 074.0152 263.6495 0141859 316.7137 042.3811 14.07403010228787
0 COSMOS 2251 DEB
1 35975U 93036AVR 13295.23102766  .00002725  00000-0  14901-2 0  2320
2 35975 074.0168 260.7795 0142417 312.8384 046.1095 14.07415534229014
